OBJECT_NAME,OBJECT_ID,EPOCH,MEAN_MOTION,ECCENTRICITY,INCLINATION,RA_OF_ASC_NODE,ARG_OF_PERICENTER,MEAN_ANOMALY,EPHEMERIS_TYPE,CLASSIFICATION_TYPE,NORAD_CAT_ID,ELEMENT_SET_NO,REV_AT_EPOCH,BSTAR,MEAN_MOTION_DOT,MEAN_MOTION_DDOT
SAUDISAT 5A,2018-102A,2026-07-13T03:50:40.245792,15.28308862,.0010593,97.3058,255.2424,50.1960,310.0211,0,U,43831,999,41964,.1229E-3,.332E-4,0
SAUDISAT 5B,2018-102C,2026-07-13T04:11:41.168256,15.28552620,.0011376,97.3167,258.3736,51.5849,308.6411,0,U,43833,999,41976,.11438E-3,.3108E-4,0
GAOFEN-10R,2019-066A,2026-07-13T04:44:01.582656,14.83054790,.0006952,98.0514,147.9673,58.2370,301.9520,0,U,44622,999,36623,.79483E-4,.592E-5,0
CARTOSAT-3,2019-081A,2026-07-13T04:09:30.247200,15.19316618,.0013207,97.4300,255.6204,67.6622,292.6011,0,U,44804,999,36741,.15252E-3,.3159E-4,0
GAOFEN-12 01,2019-082A,2026-07-13T04:02:35.460672,14.80478743,.0001065,97.8108,199.8629,53.9327,306.1984,0,U,44819,999,35793,.3189E-4,.193E-5,0
CSG-1,2019-092A,2026-07-13T04:16:14.606976,14.82155876,.0001487,97.8893,17.4048,89.8748,270.2636,0,U,44873,999,35532,.31501E-4,.199E-5,0
NEMO-HD,2020-061F,2026-07-13T04:02:55.399200,15.45112007,.0000979,97.1911,255.8656,90.1415,269.9947,0,U,46277,999,32599,.16776E-3,.7852E-4,0
SENTINEL-6A,2020-086A,2026-07-12T22:17:12.577056,12.80930069,.0007812,66.0413,81.5884,269.9474,90.0646,0,U,46984,999,26362,.81705E-5,-.59E-6,0
CAS500-1,2021-022A,2026-07-13T04:41:21.619968,15.20169154,.0005002,97.3874,88.9186,174.9599,185.1687,0,U,47932,999,29471,.17039E-3,.3621E-4,0
GAOFEN-12 02,2021-026A,2026-07-13T04:22:32.682144,14.80315163,.0005707,97.9933,192.2581,137.5075,222.6580,0,U,48079,999,28560,.28743E-4,.166E-5,0
PLEIADES NEO 3,2021-034A,2026-07-13T04:27:16.279776,14.81680610,.0001388,97.8945,268.5780,95.4656,264.6715,0,U,48268,999,28150,.95367E-4,.699E-5,0
PLEIADES NEO 4,2021-073E,2026-07-12T21:09:39.652416,14.81673276,.0001316,97.8940,268.2747,92.3250,267.8113,0,U,49070,999,26517,.56107E-5,-.8E-7,0
LANDSAT 9,2021-088A,2026-07-13T03:41:23.573184,14.57094685,.0001152,98.2271,264.0154,89.6828,270.4502,0,U,49260,999,25478,.4359E-4,.151E-5,0
CSG-2,2022-008A,2026-07-13T03:27:34.966944,14.82150702,.0001564,97.8890,17.3661,85.5530,274.5862,0,U,51444,999,24043,.83641E-4,.614E-5,0
GAOFEN-12 03,2022-069A,2026-07-13T03:34:41.866752,14.80073999,.0002494,97.8253,81.3618,74.4501,285.6986,0,U,52912,999,21845,.58653E-4,.394E-5,0
SWOT,2022-173A,2026-07-13T03:22:19.021152,14.00172280,.0000286,77.6108,0.2718,78.4279,281.6905,0,U,54754,999,18278,.54752E-4,.78E-6,0
GAOFEN-12 04,2023-123A,2026-07-13T04:02:28.361184,14.79773243,.0003612,97.9103,111.7986,54.6243,305.5306,0,U,57654,999,15647,.70204E-4,.477E-5,0
PARS 1,2024-039Q,2026-07-13T04:54:41.653728,15.46262544,.0010006,97.4831,175.9560,33.3013,326.8864,0,U,59065,999,13266,.16033E-3,.781E-4,0
RESURS-P 4,2024-061A,2026-07-13T04:34:05.960064,15.32272887,.0003222,97.2758,141.6398,92.5095,267.6516,0,U,59371,999,12774,.58068E-4,.1734E-4,0
LEGION 1,2024-081A,2026-07-13T03:41:51.044064,15.16836381,.0007683,97.5014,271.7354,277.9814,82.0548,0,U,59625,999,12147,.11466E-3,.2188E-4,0
LEGION 2,2024-081B,2026-07-13T04:25:33.818016,15.16814773,.0010104,97.5015,271.8623,241.2335,118.7883,0,U,59626,999,12148,.10301E-3,.1959E-4,0
ALOS-4 (DAICHI-4),2024-123A,2026-07-12T17:22:11.205120,14.79477360,.0001592,97.9221,290.5332,97.7402,262.3991,0,U,60182,999,10965,.10387E-3,.724E-5,0
LEGION 3,2024-146A,2026-07-13T03:52:36.026112,15.15648711,.0008386,45.0010,251.2894,322.8288,37.2010,0,U,60452,999,10596,.1189E-3,.2037E-4,0
LEGION 4,2024-146B,2026-07-12T21:32:39.247008,15.15671279,.0008931,45.0029,344.5704,99.1790,261.0099,0,U,60453,999,10477,.14734E-3,.2589E-4,0
SENTINEL-2C,2024-157A,2026-07-13T02:47:55.192128,14.30815311,.0000945,98.5685,268.5307,101.6326,258.4963,0,U,60989,999,9669,.31574E-4,.39E-6,0
IONOSFERA-M 1,2024-199A,2026-07-13T01:46:06.913632,14.22758845,.0002189,98.7138,66.9686,75.7542,284.3879,0,U,61735,999,13138,.32285E-4,.28E-6,0
IONOSFERA-M 2,2024-199B,2026-07-13T02:35:24.679392,14.22762251,.0000421,98.7137,66.9128,117.7784,242.3437,0,U,61736,999,13451,.32969E-4,.3E-6,0
PRSC-EO1,2025-012A,2026-07-13T04:03:23.977728,15.17606130,.0006599,97.4221,266.1196,152.2336,207.9252,0,U,62725,999,8213,.20716E-3,.41E-4,0
BIOMASS,2025-090A,2026-07-12T22:41:28.502592,14.67536495,.0001417,98.0753,20.8830,96.2489,263.8877,0,U,63772,999,6446,.10516E-3,.548E-5,0
GOSAT-GW (IBUKI GW),2025-141A,2026-07-13T04:00:53.444736,14.67555735,.0001434,98.0565,131.0623,85.1241,275.0127,0,U,64694,999,5565,.76348E-4,.385E-5,0
IONOSFERA-M 3,2025-155A,2026-07-13T03:34:19.682688,14.21490642,.0002235,98.6039,155.4023,115.6706,244.4703,0,U,64876,999,5009,.23628E-4,.9E-7,0
