SAUDISAT 5A             
1 43831U 18102A   26194.16018803  .00003320  00000+0  12290-3 0  9994
2 43831  97.3058 255.2424 0010593  50.1960 310.0211 15.28308862419641
SAUDISAT 5B             
1 43833U 18102C   26194.17478204  .00003108  00000+0  11438-3 0  9999
2 43833  97.3167 258.3736 0011376  51.5849 308.6411 15.28552620419766
GAOFEN-10R              
1 44622U 19066A   26194.19724054  .00000592  00000+0  79483-4 0  9994
2 44622  98.0514 147.9673 0006952  58.2370 301.9520 14.83054790366232
CARTOSAT-3              
1 44804U 19081A   26194.17326675  .00003159  00000+0  15252-3 0  9993
2 44804  97.4300 255.6204 0013207  67.6622 292.6011 15.19316618367414
GAOFEN-12 01            
1 44819U 19082A   26194.16846598  .00000193  00000+0  31890-4 0  9992
2 44819  97.8108 199.8629 0001065  53.9327 306.1984 14.80478743357930
CSG-1                   
1 44873U 19092A   26194.17794684  .00000199  00000+0  31501-4 0  9997
2 44873  97.8893  17.4048 0001487  89.8748 270.2636 14.82155876355321
NEMO-HD                 
1 46277U 20061F   26194.16869675  .00007852  00000+0  16776-3 0  9996
2 46277  97.1911 255.8656 0000979  90.1415 269.9947 15.45112007325998
SENTINEL-6A             
1 46984U 20086A   26193.92861779 -.00000059  00000+0  81705-5 0  9997
2 46984  66.0413  81.5884 0007812 269.9474  90.0646 12.80930069263628
CAS500-1                
1 47932U 21022A   26194.19538912  .00003621  00000+0  17039-3 0  9996
2 47932  97.3874  88.9186 0005002 174.9599 185.1687 15.20169154294719
GAOFEN-12 02            
1 48079U 21026A   26194.18232271  .00000166  00000+0  28743-4 0  9997
2 48079  97.9933 192.2581 0005707 137.5075 222.6580 14.80315163285603
PLEIADES NEO 3          
1 48268U 21034A   26194.18560509  .00000699  00000+0  95367-4 0  9991
2 48268  97.8945 268.5780 0001388  95.4656 264.6715 14.81680610281505
PLEIADES NEO 4          
1 49070U 21073E   26193.88170894 -.00000008  00000+0  56107-5 0  9991
2 49070  97.8940 268.2747 0001316  92.3250 267.8113 14.81673276265171
LANDSAT 9               
1 49260U 21088A   26194.15374506  .00000151  00000+0  43590-4 0  9994
2 49260  98.2271 264.0154 0001152  89.6828 270.4502 14.57094685254789
CSG-2                   
1 51444U 22008A   26194.14415471  .00000614  00000+0  83641-4 0  9995
2 51444  97.8890  17.3661 0001564  85.5530 274.5862 14.82150702240434
GAOFEN-12 03            
1 52912U 22069A   26194.14909568  .00000394  00000+0  58653-4 0  9998
2 52912  97.8253  81.3618 0002494  74.4501 285.6986 14.80073999218456
SWOT                    
1 54754U 22173A   26194.14049793  .00000078  00000+0  54752-4 0  9990
2 54754  77.6108   0.2718 0000286  78.4279 281.6905 14.00172280182789
GAOFEN-12 04            
1 57654U 23123A   26194.16838381  .00000477  00000+0  70204-4 0  9992
2 57654  97.9103 111.7986 0003612  54.6243 305.5306 14.79773243156479
PARS 1                  
1 59065U 24039Q   26194.20464877  .00007810  00000+0  16033-3 0  9994
2 59065  97.4831 175.9560 0010006  33.3013 326.8864 15.46262544132666
RESURS-P 4              
1 59371U 24061A   26194.19034676  .00001734  00000+0  58068-4 0  9991
2 59371  97.2758 141.6398 0003222  92.5095 267.6516 15.32272887127745
LEGION 1                
1 59625U 24081A   26194.15406301  .00002188  00000+0  11466-3 0  9993
2 59625  97.5014 271.7354 0007683 277.9814  82.0548 15.16836381121470
LEGION 2                
1 59626U 24081B   26194.18441919  .00001959  00000+0  10301-3 0  9993
2 59626  97.5015 271.8623 0010104 241.2335 118.7883 15.16814773121487
ALOS-4 (DAICHI-4)       
1 60182U 24123A   26193.72374080  .00000724  00000+0  10387-3 0  9995
2 60182  97.9221 290.5332 0001592  97.7402 262.3991 14.79477360109650
LEGION 3                
1 60452U 24146A   26194.16152808  .00002037  00000+0  11890-3 0  9990
2 60452  45.0010 251.2894 0008386 322.8288  37.2010 15.15648711105961
LEGION 4                
1 60453U 24146B   26193.89767647  .00002589  00000+0  14734-3 0  9995
2 60453  45.0029 344.5704 0008931  99.1790 261.0099 15.15671279104773
SENTINEL-2C             
1 60989U 24157A   26194.11661102  .00000039  00000+0  31574-4 0  9996
2 60989  98.5685 268.5307 0000945 101.6326 258.4963 14.30815311 96697
IONOSFERA-M 1           
1 61735U 24199A   26194.07369113  .00000028  00000+0  32285-4 0  9992
2 61735  98.7138  66.9686 0002189  75.7542 284.3879 14.22758845131384
IONOSFERA-M 2           
1 61736U 24199B   26194.10792453  .00000030  00000+0  32969-4 0  9996
2 61736  98.7137  66.9128 0000421 117.7784 242.3437 14.22762251134515
PRSC-EO1                
1 62725U 25012A   26194.16902752  .00004100  00000+0  20716-3 0  9999
2 62725  97.4221 266.1196 0006599 152.2336 207.9252 15.17606130 82132
BIOMASS                 
1 63772U 25090A   26193.94546878  .00000548  00000+0  10516-3 0  9995
2 63772  98.0753  20.8830 0001417  96.2489 263.8877 14.67536495 64462
GOSAT-GW (IBUKI GW)     
1 64694U 25141A   26194.16728524  .00000385  00000+0  76348-4 0  9996
2 64694  98.0565 131.0623 0001434  85.1241 275.0127 14.67555735 55656
IONOSFERA-M 3           
1 64876U 25155A   26194.14883892  .00000009  00000+0  23628-4 0  9997
2 64876  98.6039 155.4023 0002235 115.6706 244.4703 14.21490642 50097
